ONEWEB-0295             
1 49084U 21075K   25107.41364537  .00000059  00000+0  11758-3 0  9996
2 49084  87.9030  90.6607 0002045  97.4851 262.6513 13.17650733177520
ONEWEB-0296             
1 49085U 21075L   25107.44916068  .00000225  00000+0  58937-3 0  9997
2 49085  87.8840  75.3689 0001835 104.0296 256.1037 13.12443009178737
ONEWEB-0297             
1 49086U 21075M   25107.40373212 -.00000318  00000+0 -91990-3 0  9993
2 49086  87.8849  75.4079 0002058  86.0054 274.1309 13.12444786179332
ONEWEB-0298             
1 49087U 21075N   25107.41800930  .00000039  00000+0  68205-4 0  9999
2 49087  87.9018  90.6722 0002192  87.4967 272.6415 13.17647396177553
ONEWEB-0299             
1 49088U 21075P   25107.41956476  .00000028  00000+0  39345-4 0  9998
2 49088  87.9015  90.6281 0002172  88.9731 271.1649 13.17648463177531
